GALAXY 25 (G-25)        
1 24812U 97026A   22267.17268596 -.00000003  00000+0  00000+0 0  9996
2 24812   3.9316  82.6405 0002590 117.4623 291.1767  1.00272778 92723
INTELSAT 5 (IS-5)       
1 24916U 97046A   22267.42211464 -.00000058  00000+0  00000+0 0  9993
2 24916   7.4357  60.3489 0004715 142.3653 118.6365  1.00271730 91967
GALAXY 11 (G-11)        
1 26038U 99071A   22267.18243995 -.00000162  00000+0  00000+0 0  9993
2 26038   3.2552  86.3834 0000982 196.0546  53.1555  1.00271509 83426
INTELSAT 9 (IS-9)       
1 26451U 00043A   22267.27965959 -.00000284  00000+0  00000+0 0  9999
2 26451   7.4198  60.5251 0002664 137.8447 215.4375  1.00273096 30480
INTELSAT 1R (IS-1R)     
1 26608U 00072A   22267.53085233 -.00000136  00000+0  00000+0 0  9998
2 26608   4.6900  79.7184 0000147 197.2890  74.5529  1.00271167 27665
INTELSAT 10 (IS-10)     
1 26766U 01019A   22267.55829278  .00000037  00000+0  00000+0 0  9991
2 26766   5.8078  72.4964 0002605 122.9251 186.7498  1.00272827 31965
INTELSAT 901 (IS-901)   
1 26824U 01024A   22267.27375821 -.00000204  00000+0  00000+0 0  9998
2 26824   0.0248 179.2551 0001073  29.6988 225.2006  1.00270704  9312
INTELSAT 902 (IS-902)   
1 26900U 01039A   22267.27965959 -.00000282  00000+0  00000+0 0  9992
2 26900   2.6490  87.8872 0002470 105.6143 220.1812  1.00270890 77033
INTELSAT 904 (IS-904)   
1 27380U 02007A   22267.27410543 -.00000213  00000+0  00000+0 0  9999
2 27380   3.4785  84.8629 0002775 100.2207 247.1921  1.00270635 38101
DIRECTV 5 (TEMPO 1)     
1 27426U 02023A   22267.52810009 -.00000056  00000+0  00000+0 0  9992
2 27426   1.3731  91.9793 0003081  90.3839 260.9863  1.00271443 74467
INTELSAT 905 (IS-905)   
1 27438U 02027A   22267.22640137 -.00000184  00000+0  00000+0 0  9991
2 27438   3.3004  85.5933 0002513  93.0322 241.4427  1.00272620 37700
GALAXY 3C (G-3C)        
1 27445U 02030A   22267.18243995 -.00000154  00000+0  00000+0 0  9996
2 27445   0.2236  88.2292 0000652 202.5996  43.0276  1.00272245 32835
INTELSAT 906 (IS-906)   
1 27513U 02041A   22267.10057130  .00000014  00000+0  00000+0 0  9994
2 27513   2.3176  89.3340 0002926 105.5585 268.3759  1.00272430 73373
GALAXY 12 (G-12)        
1 27715U 03013B   22267.50628014  .00000059  00000+0  00000+0 0  9996
2 27715   3.5119  84.5047 0001802 111.3134 220.7737  1.00272057 38436
GALAXY 23 (G-23)        
1 27854U 03034A   22267.51634497  .00000012  00000+0  00000+0 0  9995
2 27854   0.0142 162.8435 0003023  41.3069 224.0795  1.00272918 70089
GALAXY 13 (HORIZONS-1)  
1 27954U 03044A   22267.43134611  .00000047  00000+0  00000+0 0  9999
2 27954   0.0195 198.8160 0000413 353.2100 199.4935  1.00272185 32910
INTELSAT 10-02          
1 28358U 04022A   22267.23243961 -.00000013  00000+0  00000+0 0  9996
2 28358   0.0120 225.1087 0000915 339.5099 241.1373  1.00271180 66888
XM-3 (RHYTHM)           
1 28626U 05008A   22267.20535466 -.00000207  00000+0  00000+0 0  9995
2 28626   0.0202 151.0767 0001483  27.7457 173.0362  1.00267436 28961
DIRECTV 8               
1 28659U 05019A   22267.51804184  .00000000  00000+0  00000+0 0  9993
2 28659   0.0125 134.6551 0002513  56.5810 239.5578  1.00272686 63416
GALAXY 28 (G-28)        
1 28702U 05022A   22267.18243995 -.00000187  00000+0  00000+0 0  9993
2 28702   0.0107 125.4202 0001936  77.6064 136.6327  1.00270679 38320
GALAXY 14 (G-14)        
1 28790U 05030A   22267.20309679  .00000155  00000+0  00000+0 0  9998
2 28790   1.5055  91.1303 0001837  85.4518 292.4577  1.00271259 62653
GALAXY 15 (G-15)        
1 28884U 05041A   22267.50097913  .00000070  00000+0  00000+0 0  9998
2 28884   0.0642  87.5546 0002458 122.0009 202.3318  1.00286951 61954
SPACEWAY 2              
1 28903U 05046B   22267.49270666  .00000104  00000+0  00000+0 0  9999
2 28903   2.1252  86.9773 0000122 197.4792 117.3399  1.00267396 37681
GALAXY 16 (G-16)        
1 29236U 06023A   22267.54176986 -.00000128  00000+0  00000+0 0  9998
2 29236   0.0247 243.4854 0002667 308.6477 267.2639  1.00271762 59312
DIRECTV 9S              
1 29494U 06043A   22267.53997355 -.00000114  00000+0  00000+0 0  9991
2 29494   0.0126 179.1094 0003112  13.3372 264.1060  1.00271780 37720
XM-4 (BLUES)            
1 29520U 06049A   22267.18243995 -.00000207  00000+0  00000+0 0  9995
2 29520   0.0628 328.3222 0001874 350.5066  24.7665  1.00271382 37816
GALAXY 17 (G-17)        
1 31307U 07016B   22267.18243995 -.00000176  00000+0  00000+0 0  9991
2 31307   0.0209 127.7471 0002750  69.2047 140.7474  1.00272074 56144
DIRECTV 10              
1 31862U 07032A   22267.53837900 -.00000104  00000+0  00000+0 0  9990
2 31862   0.0470 342.2544 0000233 261.4532 210.6652  1.00271824 31942
SPACEWAY 3              
1 32018U 07036A   22267.18243995 -.00000153  00000+0  00000+0 0  9998
2 32018   0.4741  90.4635 0000240  27.3541 215.9254  1.00272026 32897
INTELSAT 11 (IS-11)     
1 32253U 07044B   22267.27965959 -.00000270  00000+0  00000+0 0  9999
2 32253   0.0367  97.1606 0001731 107.3927 216.2459  1.00273012 54838
HORIZONS-2              
1 32388U 07063B   22267.28521674 -.00000242  00000+0  00000+0 0  9991
2 32388   0.0167 113.5117 0003115  11.4399 270.3166  1.00011564 54154
DIRECTV 11              
1 32729U 08013A   22267.54176986 -.00000127  00000+0  00000+0 0  9999
2 32729   0.0203   3.2727 0000196 119.2275 336.7231  1.00272310 31942
GALAXY 18 (G-18)        
1 32951U 08024A   22267.51295385  .00000024  00000+0  00000+0 0  9995
2 32951   0.0262 187.7107 0002919 351.5264 245.7313  1.00270994 32192
INTELSAT 25 (IS-25)     
1 33153U 08034A   22267.27410543 -.00000225  00000+0  00000+0 0  9993
2 33153   0.0104 179.2974 0003008   7.4301 243.5549  1.00271927 52038
GALAXY 19 (G-19)        
1 33376U 08045A   22267.23790420 -.00000141  00000+0  00000+0 0  9990
2 33376   0.0172 218.5859 0002939 331.0070 162.1262  1.00272328 51246
FM-5                    
1 35493U 09034A   22267.21410611 -.00000202  00000+0  00000+0 0  9998
2 35493   0.0179 231.4655 0000426 197.9079 284.6057  1.00273900 32989
INTELSAT 14 (IS-14)     
1 36097U 09064A   22267.27965959 -.00000275  00000+0  00000+0 0  9998
2 36097   0.0206 148.6029 0002492  51.4590 218.7375  1.00272388 46943
INTELSAT 15 (IS-15)     
1 36106U 09067A   22267.10475691 -.00000188  00000+0  00000+0 0  9996
2 36106   0.0200 270.9163 0002299 283.0944 291.7880  1.00272333 27577
DIRECTV 12              
1 36131U 09075A   22267.53837920 -.00000104  00000+0  00000+0 0  9995
2 36131   0.0151 203.7592 0000025 329.1488 281.5496  1.00269178 32906
INTELSAT 16 (IS-16)     
1 36397U 10006A   22267.26229917 -.00000246  00000+0  00000+0 0  9993
2 36397   0.0173 260.4861 0002189 290.5604 190.2800  1.00272421 45990
XM-5                    
1 37185U 10053A   22267.52301942 -.00000024  00000+0  00000+0 0  9993
2 37185   0.0196 222.6740 0000904 156.4822  57.2887  1.00270524 43821
INTELSAT 17 (IS-17)     
1 37238U 10065B   22267.21576969 -.00000004  00000+0  00000+0 0  9992
2 37238   0.0203 193.0386 0002692 352.4033 321.2740  1.00271600 39580
INTELSAT NEW DAWN       
1 37392U 11016A   22267.20327041  .00000154  00000+0  00000+0 0  9999
2 37392   0.0191 145.4263 0000635  45.8892 277.7074  1.00273386 39637
INTELSAT 18 (IS-18)     
1 37834U 11056A   22267.55880949  .00000052  00000+0  00000+0 0  9990
2 37834   0.0089 113.8110 0001916  60.8570 209.8808  1.00271485 40155
INTELSAT 22 (IS-22)     
1 38098U 12011A   22267.10222810 -.00000061  00000+0  00000+0 0  9994
2 38098   0.0021 187.3740 0002822 352.6358 291.8156  1.00272167 38165
INTELSAT 19 (IS-19)     
1 38356U 12030A   22267.42126987 -.00000058  00000+0  00000+0 0  9991
2 38356   0.0258 169.9319 0002993  19.4043 131.5567  1.00269385 36780
INTELSAT 20 (IS-20)     
1 38740U 12043A   22267.21576969 -.00000027  00000+0  00000+0 0  9994
2 38740   0.0130 170.0052 0002109  12.9801 326.2211  1.00273669 37096
INTELSAT 21 (IS-21)     
1 38749U 12045A   22267.25674458 -.00000286  00000+0  00000+0 0  9998
2 38749   0.0213 142.1214 0002122  40.8196 214.5749  1.00272629 36874
INTELSAT 23 (IS-23)     
1 38867U 12057A   22267.25674458 -.00000286  00000+0  00000+0 0  9992
2 38867   0.0420 263.3845 0001052 131.7516   7.3989  1.00272027 36289
FM-6                    
1 39360U 13058A   22267.52142455 -.00000018  00000+0  00000+0 0  9993
2 39360   0.0449 269.2899 0000428 155.6922   9.9155  1.00270417 32409
INTELSAT 30 (IS-30)     
1 40271U 14062A   22267.13729851 -.00000153  00000+0  00000+0 0  9990
2 40271   0.0205 214.0499 0001943 227.8089 235.4834  1.00271851 28920
DIRECTV 14              
1 40333U 14078B   22267.54177056 -.00000127  00000+0  00000+0 0  9996
2 40333   0.0184 111.1418 0000226 207.2691 140.7755  1.00272615 28409
DIRECTV 15              
1 40663U 15026A   22267.53837924 -.00000104  00000+0  00000+0 0  9997
2 40663   0.0139 126.6719 0000593 267.4858  60.1558  1.00271971 26802
SKY MEXICO-1            
1 40664U 15026B   22267.26229917 -.00000236  00000+0  00000+0 0  9991
2 40664   0.0198 158.2823 0002323  46.7883 173.6682  1.00269929 26790
INTELSAT 34 (IS-34)     
1 40874U 15039A   22267.25674458 -.00000287  00000+0  00000+0 0  9997
2 40874   0.0458 294.7681 0000339 100.9715   4.2831  1.00272415 25969
INTELSAT 31 (IS-31)     
1 41581U 16035A   22267.21236212 -.00000153  00000+0  00000+0 0  9990
2 41581   0.0217 231.0836 0001303 350.7600 122.5908  1.00272487 23038
INTELSAT 36 (IS-36)     
1 41747U 16053A   22267.17320917 -.00000026  00000+0  00000+0 0  9994
2 41747   0.0163 188.8005 0002578 180.2617 124.7821  1.00268355 22292
INTELSAT 33E (IS-33E)   
1 41748U 16053B   22267.21576969  .00000047  00000+0  00000+0 0  9992
2 41748   0.0205 177.7908 0001648   3.1740 319.7226  1.00270000 22594
INTELSAT 32E (IS-32E)   
1 41945U 17007B   22267.27965959 -.00000271  00000+0  00000+0 0  9998
2 41945   0.0264 170.7780 0000181 338.1534 271.6549  1.00269204 20576
INTELSAT 35E (IS-35E)   
1 42818U 17041A   22266.36715969 -.00000241  00000+0  00000+0 0  9996
2 42818   0.0184 155.5063 0001712  43.6381 260.7227  1.00270315 19149
INTELSAT 37E (IS-37E)   
1 42950U 17059A   22266.95118694 -.00000143  00000+0  00000+0 0  9990
2 42950   0.0204 158.6517 0002854  35.4377 133.1120  1.00271265 18407
AZERSPACE 2 (IS-38)     
1 43632U 18074A   22267.22688103  .00000135  00000+0  00000+0 0  9994
2 43632   0.0269 163.1800 0000888  43.0655 283.5774  1.00270184 14793
HORIZONS-3E             
1 43633U 18074B   22266.42415038 -.00000034  00000+0  00000+0 0  9990
2 43633   0.0078  38.2913 0000994 258.7143  26.9298  1.00269609 14671
AT&T T-16               
1 44333U 19034A   22267.38899575 -.00000117  00000+0  00000+0 0  9995
2 44333   0.0206 154.2186 0000706 325.7409 282.4514  1.00272125 11971
INTELSAT 39 (IS-39)     
1 44476U 19049B   22267.21576969  .00000032  00000+0  00000+0 0  9995
2 44476   0.0255 185.9228 0000698 161.9192 154.8050  1.00269556 11487
GALAXY 30 (G-30)        
1 46114U 20056C   22267.51125934  .00000036  00000+0  00000+0 0  9995
2 46114   0.0257 187.0256 0002396   3.5238 231.8261  1.00271118  7632
